OBJECT_NAME,OBJECT_ID,EPOCH,MEAN_MOTION,ECCENTRICITY,INCLINATION,RA_OF_ASC_NODE,ARG_OF_PERICENTER,MEAN_ANOMALY,EPHEMERIS_TYPE,CLASSIFICATION_TYPE,NORAD_CAT_ID,ELEMENT_SET_NO,REV_AT_EPOCH,BSTAR,MEAN_MOTION_DOT,MEAN_MOTION_DDOT
BEIDOU-2 G6,2012-059A,2026-06-06T20:57:21.665088,1.00275119,.00103878,4.3949,73.6308,324.3452,255.6355,0,U,38953,999,4980,0,-.162E-5,0
LUCH-5B,2012-061A,2026-06-06T23:39:42.670656,1.00274188,.00017557,10.4589,49.9805,137.0640,46.9761,0,U,38977,999,4950,0,-.126E-5,0
YAMAL 300K,2012-061B,2026-06-07T05:44:29.993856,1.00271221,.00011153,0.0137,267.8782,312.4959,304.3579,0,U,38978,999,4953,0,.85E-6,0
STAR ONE C3,2012-062A,2026-06-07T06:35:14.284032,1.00269978,.00025679,0.0178,353.7967,99.1135,186.5858,0,U,38991,999,4966,0,-.235E-5,0
EUTELSAT 21B,2012-062B,2026-06-07T04:58:26.973696,1.00270520,.00030174,0.0657,350.7624,81.2324,279.8049,0,U,38992,999,4972,0,.144E-5,0
ECHOSTAR 16,2012-065A,2026-06-07T04:01:38.618112,1.00270485,.00016535,0.0179,347.8372,96.2792,170.3824,0,U,39008,999,4954,0,-.268E-5,0
YAOGAN-16 01A,2012-066A,2026-06-07T03:31:05.012256,13.45516084,.04346291,63.3547,315.7371,27.0640,335.2340,0,U,39011,999,66479,.33502261E-4,-.56E-6,0
YAOGAN-16 01B,2012-066B,2026-06-07T03:37:39.105984,13.45513007,.04348121,63.3550,315.9455,26.8074,335.4720,0,U,39012,999,66475,.21622004E-4,-.68E-6,0
YAOGAN-16 01C,2012-066C,2026-06-07T05:24:23.289984,13.45504944,.04349494,63.3558,315.2482,26.3683,335.8784,0,U,39013,999,66479,.1155497E-3,.31E-6,0
ZHONGXING-12,2012-067A,2026-06-07T02:52:21.429408,1.00271409,.00033565,0.0482,96.3930,336.6816,313.0531,0,U,39017,999,4940,0,-.193E-5,0
PLEIADES 1B,2012-068A,2026-06-07T06:28:07.078368,14.58554881,.00015767,98.1942,233.4575,95.6797,264.4582,0,U,39019,999,71940,.93055549E-4,.387E-5,0
EUTELSAT 70B,2012-069A,2026-06-07T03:13:38.943264,1.00271560,.0003972,0.0613,353.3612,75.6662,305.4125,0,U,39020,999,4940,0,-.29E-6,0
YAMAL 402,2012-070A,2026-06-07T05:07:56.064576,1.00271629,.00039202,1.2386,84.2872,348.4470,314.7682,0,U,39022,999,4929,0,.1E-5,0
GOKTURK 2,2012-073A,2026-06-07T05:56:56.459616,14.75533148,.00019439,97.6823,356.1773,62.0161,298.1246,0,U,39030,999,72304,.10708208E-3,.682E-5,0
SKYNET 5D,2012-075A,2026-06-07T05:07:26.113152,1.00272593,.00038766,0.0661,359.5528,84.9715,300.7340,0,U,39034,999,4905,0,.113E-5,0
MEXSAT 3,2012-075B,2026-06-07T06:02:12.323328,1.00269028,.000141,0.0233,74.8954,353.9693,162.5612,0,U,39035,999,695,0,-.11E-6,0
COSMOS 2482 (RODNIK-S 4),2013-001A,2026-06-07T07:12:32.827680,12.42995849,.00283261,82.4983,226.5079,48.8067,311.5449,0,U,39057,999,60748,-.45512833E-3,-.53E-6,0
COSMOS 2483 (RODNIK-S 5),2013-001B,2026-06-07T07:18:29.480832,12.44025057,.00172159,82.4993,221.0655,38.6621,321.5689,0,U,39058,999,60036,.45443426E-3,.74E-6,0
COSMOS 2484 (RODNIK-S 6),2013-001C,2026-06-07T05:53:19.871232,12.42938860,.00272328,82.5018,228.0730,57.7601,302.6113,0,U,39059,999,60732,.626859E-5,.11E-6,0
TDRS 11,2013-004A,2026-06-07T07:40:54.955200,1.00265987,.00056663,3.5069,31.1026,15.5930,149.9793,0,U,39070,999,4659,0,.93E-6,0
GLOBALSTAR M097,2013-005A,2026-06-07T00:39:07.038720,12.62247287,.00004777,52.0060,274.2639,120.9272,239.1642,0,U,39072,999,61562,.14121164E-3,-.78E-6,0
GLOBALSTAR M093,2013-005B,2026-06-07T00:00:45.578592,12.62265677,.0000337,52.0112,267.6879,107.0799,253.0105,0,U,39073,999,61557,.1135574E-3,-.83E-6,0
GLOBALSTAR M094,2013-005C,2026-06-07T07:36:45.094176,12.62268522,.00001666,51.9930,180.8511,325.7615,34.3241,0,U,39074,999,61722,.10824278E-4,-.102E-5,0
GLOBALSTAR M096,2013-005D,2026-06-06T22:25:59.534112,12.62265406,.00002224,52.0064,230.8093,154.5582,205.5296,0,U,39075,999,61609,.7909599E-4,-.9E-6,0
GLOBALSTAR M078,2013-005E,2026-06-07T03:29:08.462112,12.62259796,.00006514,51.9892,314.1897,191.4164,168.6688,0,U,39076,999,61474,-.95424236E-4,-.121E-5,0
GLOBALSTAR M095,2013-005F,2026-06-07T04:07:42.201408,12.62263339,.00004001,52.0095,311.6986,120.5554,239.5352,0,U,39077,999,61460,.72705025E-4,-.91E-6,0
AMAZONAS 3,2013-006A,2026-06-07T04:01:38.618112,1.00270545,.00021935,0.0292,188.6820,279.8679,146.4475,0,U,39078,999,4481,0,-.268E-5,0
AZERSPACE 1,2013-006B,2026-06-07T05:05:26.304000,1.00272178,.00014432,0.0339,75.4552,29.1936,273.3194,0,U,39079,999,4870,0,.147E-5,0
LANDSAT 8,2013-008A,2026-06-06T22:19:32.709216,14.57111856,.00014591,98.2302,228.1869,96.6119,263.5245,0,U,39084,999,69640,.83480754E-4,.331E-5,0
SARAL,2013-009A,2026-06-07T06:21:02.202048,14.32853562,.00012685,98.5558,344.9578,355.4175,4.6997,0,U,39086,999,69418,.53067008E-4,.101E-5,0
SAPPHIRE,2013-009C,2026-06-07T06:17:45.540096,14.35237863,.00099842,98.4259,337.9541,279.7357,80.2701,0,U,39088,999,69515,.59520271E-4,.127E-5,0
